NORAD_CAT_ID,OBJECT_NAME,OBJECT_TYPE,EPOCH,MEAN_MOTION,ECCENTRICITY,INCLINATION,RA_OF_ASC_NODE,ARG_OF_PERICENTER,MEAN_ANOMALY,BSTAR,MEAN_MOTION_DOT,MEAN_MOTION_DDOT,TLE_LINE0,TLE_LINE1,TLE_LINE2,SEMIMAJOR_AXIS,PERIOD,APOGEE,PERIGEE,DECAYED
56468.0,STARLINK-5998,PAYLOAD,2024-01-29 16:48:54,14.98330155,0.0002638,69.9993,285.6896,258.5664,101.5199,4.8733e-05,4.89e-06,0.0,0 STARLINK-5998,1 56468U 23064W   24029.70062766  .00000489  00000-0  48733-4 0  9995,2 56468  69.9993 285.6896 0002638 258.5664 101.5199 14.98330155 39912,6950.192,96.107,573.891,570.224,0.0
56468.0,STARLINK-5998,PAYLOAD,2024-01-30 02:25:42,14.98330673,0.0002639,69.9992,284.6796,259.0332,101.0531,4.7174e-05,4.7e-06,0.0,0 STARLINK-5998,1 56468U 23064W   24030.10118708  .00000470  00000-0  47174-4 0  9997,2 56468  69.9992 284.6796 0002639 259.0332 101.0531 14.98330673 40336,6950.191,96.107,573.89,570.222,0.0
56468.0,STARLINK-5998,PAYLOAD,2024-01-30 21:39:19,14.98331056,0.0002606,69.9992,282.66,260.6881,99.3984,-2.3868e-05,-3.78e-06,0.0,0 STARLINK-5998,1 56468U 23064W   24030.90230794 -.00000378  00000-0 -23868-4 0  9998,2 56468  69.9992 282.6600 0002606 260.6881  99.3984 14.98331056 40099,6950.19,96.107,573.866,570.243,0.0
56468.0,STARLINK-5998,PAYLOAD,2024-01-31 02:27:43,14.98330206,0.0002627,69.9992,282.155,261.736,98.3501,-3.3675e-05,-4.95e-06,0.0,0 STARLINK-5998,1 56468U 23064W   24031.10258863 -.00000495  00000-0 -33675-4 0  9995,2 56468  69.9992 282.1550 0002627 261.7360  98.3501 14.98330206 40488,6950.192,96.107,573.883,570.231,0.0
56468.0,STARLINK-5998,PAYLOAD,2024-01-31 15:16:48,14.98330159,0.0002664,69.9991,280.8089,263.6129,96.4726,-1.1733e-05,-2.33e-06,0.0,0 STARLINK-5998,1 56468U 23064W   24031.63666760 -.00000233  00000-0 -11733-4 0  9993,2 56468  69.9991 280.8089 0002664 263.6129  96.4726 14.98330159 40209,6950.192,96.107,573.909,570.206,0.0
56468.0,STARLINK-5998,PAYLOAD,2024-02-01 02:29:44,14.98330577,0.0002691,69.9989,279.6306,263.9878,96.0974,-2.2023e-05,-3.56e-06,0.0,0 STARLINK-5998,1 56468U 23064W   24032.10398731 -.00000356  00000-0 -22023-4 0  9996,2 56468  69.9989 279.6306 0002691 263.9878  96.0974 14.98330577 40630,6950.191,96.107,573.926,570.186,0.0
56468.0,STARLINK-5998,PAYLOAD,2024-02-02 02:31:45,14.9832778,0.0002736,69.9986,277.1065,264.366,95.7187,-9.789e-06,-2.1e-06,0.0,0 STARLINK-5998,1 56468U 23064W   24033.10538914 -.00000210  00000-0 -97890-5 0  9990,2 56468  69.9986 277.1065 0002736 264.3660  95.7187 14.98327780 40786,6950.2,96.107,573.966,570.163,0.0
56468.0,STARLINK-5998,PAYLOAD,2024-02-02 21:45:22,14.98330687,0.0002762,69.9986,275.0852,267.3813,92.703,1.0194e-05,2.9e-07,0.0,0 STARLINK-5998,1 56468U 23064W   24033.90650698  .00000029  00000-0  10194-4 0  9999,2 56468  69.9986 275.0852 0002762 267.3813  92.7030 14.98330687 40547,6950.191,96.107,573.975,570.136,0.0
56468.0,STARLINK-5998,PAYLOAD,2024-02-03 00:57:38,14.98331466,0.0002714,69.9987,274.7485,267.5158,92.5691,2.1529e-05,1.64e-06,0.0,0 STARLINK-5998,1 56468U 23064W   24034.04002610  .00000164  00000-0  21529-4 0  9994,2 56468  69.9987 274.7485 0002714 267.5158  92.5691 14.98331466 40566,6950.188,96.107,573.94,570.167,0.0
56468.0,STARLINK-5998,PAYLOAD,2024-02-03 20:11:15,14.983307,0.0002729,69.9985,272.7283,266.8194,93.2653,1.4933e-05,8.5e-07,0.0,0 STARLINK-5998,1 56468U 23064W   24034.84114626  .00000085  00000-0  14933-4 0  9996,2 56468  69.9985 272.7283 0002729 266.8194  93.2653 14.98330700 41046,6950.191,96.107,573.952,570.159,0.0
56468.0,STARLINK-5998,PAYLOAD,2024-02-03 21:47:23,14.9833007,0.0002741,69.9984,272.5599,265.6711,94.4135,6.6775e-06,-1.3e-07,0.0,0 STARLINK-5998,1 56468U 23064W   24034.90790674 -.00000013  00000-0  66775-5 0  9990,2 56468  69.9984 272.5599 0002741 265.6711  94.4135 14.98330070 40697,6950.193,96.107,573.963,570.153,0.0
56468.0,STARLINK-5998,PAYLOAD,2024-02-04 00:59:39,14.98331641,0.0002703,69.9984,272.2231,264.47,95.6151,2.0408e-05,1.51e-06,0.0,0 STARLINK-5998,1 56468U 23064W   24035.04142517  .00000151  00000-0  20408-4 0  9997,2 56468  69.9984 272.2231 0002703 264.4700  95.6151 14.98331641 40719,6950.188,96.107,573.931,570.174,0.0
56468.0,STARLINK-5998,PAYLOAD,2024-02-04 20:13:15,14.98330648,0.0002655,69.9985,270.203,258.9742,101.1119,-1.5489e-05,-2.78e-06,0.0,0 STARLINK-5998,1 56468U 23064W   24035.84254578 -.00000278  00000-0 -15489-4 0  9991,2 56468  69.9985 270.2030 0002655 258.9742 101.1119 14.98330648 41191,6950.191,96.107,573.901,570.211,0.0
56468.0,STARLINK-5998,PAYLOAD,2024-02-04 21:49:24,14.98330473,0.000266,69.9984,270.0345,258.5908,101.4953,-1.7351e-05,-3e-06,0.0,0 STARLINK-5998,1 56468U 23064W   24035.90930585 -.00000300  00000-0 -17351-4 0  9993,2 56468  69.9984 270.0345 0002660 258.5908 101.4953 14.98330473 40849,6950.191,96.107,573.905,570.208,0.0
56468.0,STARLINK-5998,PAYLOAD,2024-02-05 09:02:20,14.98330433,0.0002776,69.998,268.8549,267.7939,92.2902,-5.0493e-06,-1.53e-06,0.0,0 STARLINK-5998,1 56468U 23064W   24036.37662560 -.00000153  00000-0 -50493-5 0  9991,2 56468  69.9980 268.8549 0002776 267.7939  92.2902 14.98330433 40915,6950.192,96.107,573.986,570.127,0.0
56468.0,STARLINK-5998,PAYLOAD,2024-02-05 20:15:16,14.98331866,0.0002837,69.9978,267.6764,267.4083,92.6751,-1.0713e-05,-2.21e-06,0.0,0 STARLINK-5998,1 56468U 23064W   24036.84394420 -.00000221  00000-0 -10713-4 0  9996,2 56468  69.9978 267.6764 0002837 267.4083  92.6751 14.98331866 41348,6950.187,96.107,574.024,570.08,0.0
56468.0,STARLINK-5998,PAYLOAD,2024-02-05 21:51:24,14.98331072,0.0002853,69.9978,267.5082,267.6431,92.4402,-1.9468e-05,-3.25e-06,0.0,0 STARLINK-5998,1 56468U 23064W   24036.91070490 -.00000325  00000-0 -19468-4 0  9993,2 56468  69.9978 267.5082 0002853 267.6431  92.4402 14.98331072 40997,6950.19,96.107,574.037,570.072,0.0
56468.0,STARLINK-5998,PAYLOAD,2024-02-06 01:03:40,14.98332764,0.0002834,69.9979,267.1715,267.7805,92.303,7.8924e-07,-8.4e-07,0.0,0 STARLINK-5998,1 56468U 23064W   24037.04422302 -.00000084  00000-0  78924-6 0  9996,2 56468  69.9979 267.1715 0002834 267.7805  92.3030 14.98332764 41011,6950.184,96.107,574.019,570.08,0.0
56468.0,STARLINK-5998,PAYLOAD,2024-02-06 21:53:25,14.98330909,0.0002865,69.9979,264.9834,268.1869,91.8962,1.0421e-05,3.1e-07,0.0,0 STARLINK-5998,1 56468U 23064W   24037.91210291  .00000031  00000-0  10421-4 0  9991,2 56468  69.9979 264.9834 0002865 268.1869  91.8962 14.98330909 41148,6950.19,96.107,574.046,570.064,0.0
56468.0,STARLINK-5998,PAYLOAD,2024-02-07 01:05:41,14.9833338,0.0002855,69.998,264.647,268.9939,91.0893,3.8202e-05,3.63e-06,0.0,0 STARLINK-5998,1 56468U 23064W   24038.04562038  .00000363  00000-0  38202-4 0  9990,2 56468  69.9980 264.6470 0002855 268.9939  91.0893 14.98333380 41521,6950.182,96.107,574.032,570.063,0.0
56468.0,STARLINK-5998,PAYLOAD,2024-02-07 21:55:26,14.98330964,0.0002787,69.9983,262.4604,267.7816,92.3024,-4.8307e-06,-1.51e-06,0.0,0 STARLINK-5998,1 56468U 23064W   24038.91350201 -.00000151  00000-0 -48307-5 0  9998,2 56468  69.9983 262.4604 0002787 267.7816  92.3024 14.98330964 41293,6950.19,96.107,573.992,570.118,0.0
56468.0,STARLINK-5998,PAYLOAD,2024-02-08 01:07:42,14.9833197,0.0002786,69.9983,262.1234,269.0027,91.0813,6.8088e-06,-1.2e-07,0.0,0 STARLINK-5998,1 56468U 23064W   24039.04702094 -.00000012  00000-0  68088-5 0  9997,2 56468  69.9983 262.1234 0002786 269.0027  91.0813 14.98331970 41679,6950.187,96.107,573.988,570.115,0.0
56468.0,STARLINK-5998,PAYLOAD,2024-02-08 21:57:27,14.98327097,0.0002709,69.9985,259.9354,268.4366,91.6483,-4.4437e-05,-6.23e-06,0.0,0 STARLINK-5998,1 56468U 23064W   24039.91490547 -.00000623  00000-0 -44437-4 0  9990,2 56468  69.9985 259.9354 0002709 268.4366  91.6483 14.98327097 41441,6950.202,96.107,573.95,570.184,0.0
56468.0,STARLINK-5998,PAYLOAD,2024-02-09 01:09:43,14.98327839,0.0002702,69.9985,259.5988,268.1619,91.923,-3.467e-05,-5.07e-06,0.0,0 STARLINK-5998,1 56468U 23064W   24040.04842487 -.00000507  00000-0 -34670-4 0  9999,2 56468  69.9985 259.5988 0002702 268.1619  91.9230 14.98327839 41820,6950.2,96.107,573.943,570.187,0.0
56468.0,STARLINK-5998,PAYLOAD,2024-02-09 13:58:48,14.98330026,0.0002789,69.9984,258.2518,269.6804,90.4036,3.8321e-06,-4.7e-07,0.0,0 STARLINK-5998,1 56468U 23064W   24040.58250234 -.00000047  00000-0  38321-5 0  9997,2 56468  69.9984 258.2518 0002789 269.6804  90.4036 14.98330026 41540,6950.193,96.107,573.996,570.119,0.0
56468.0,STARLINK-5998,PAYLOAD,2024-02-09 23:35:36,14.98330671,0.0002796,69.9984,257.2419,268.3833,91.7006,9.8874e-06,2.5e-07,0.0,0 STARLINK-5998,1 56468U 23064W   24040.98306143  .00000025  00000-0  98874-5 0  9996,2 56468  69.9984 257.2419 0002796 268.3833  91.7006 14.98330671 41609,6950.191,96.107,573.999,570.113,0.0
56468.0,STARLINK-5998,PAYLOAD,2024-02-10 20:25:21,14.9832633,0.0002823,69.9984,255.0534,265.4613,94.6224,6.9436e-06,-1e-07,0.0,0 STARLINK-5998,1 56468U 23064W   24041.85094455 -.00000010  00000-0  69436-5 0  9990,2 56468  69.9984 255.0534 0002823 265.4613  94.6224 14.98326330 42093,6950.204,96.107,574.031,570.107,0.0
56468.0,STARLINK-5998,PAYLOAD,2024-02-10 22:01:29,14.98326011,0.0002829,69.9983,254.8851,265.6892,94.3943,2.5173e-06,-6.3e-07,0.0,0 STARLINK-5998,1 56468U 23064W   24041.91770502 -.00000063  00000-0  25173-5 0  9999,2 56468  69.9983 254.8851 0002829 265.6892  94.3943 14.98326011 41740,6950.205,96.107,574.036,570.104,0.0
56468.0,STARLINK-5998,PAYLOAD,2024-02-10 23:37:37,14.98326168,0.0002862,69.9982,254.7165,267.7634,92.3197,2.316e-06,-6.5e-07,0.0,0 STARLINK-5998,1 56468U 23064W   24041.98446512 -.00000065  00000-0  23160-5 0  9993,2 56468  69.9982 254.7165 0002862 267.7634  92.3197 14.98326168 41753,6950.205,96.107,574.059,570.081,0.0
56468.0,STARLINK-5998,PAYLOAD,2024-02-11 18:51:14,14.98332583,0.0002943,69.9982,252.6959,269.6893,90.3929,1.6414e-05,1.03e-06,0.0,0 STARLINK-5998,1 56468U 23064W   24042.78558014  .00000103  00000-0  16414-4 0  9998,2 56468  69.9982 252.6959 0002943 269.6893  90.3929 14.98332583 42232,6950.185,96.107,574.095,570.004,0.0
